NORAD_CAT_ID,OBJECT_NAME,OBJECT_TYPE,EPOCH,MEAN_MOTION,ECCENTRICITY,INCLINATION,RA_OF_ASC_NODE,ARG_OF_PERICENTER,MEAN_ANOMALY,BSTAR,MEAN_MOTION_DOT,MEAN_MOTION_DDOT,TLE_LINE0,TLE_LINE1,TLE_LINE2,SEMIMAJOR_AXIS,PERIOD,APOGEE,PERIGEE,DECAYED
49438.0,STARLINK-3044,PAYLOAD,2024-07-04 10:25:57,15.088388,0.0001337,53.2161,82.0615,77.5802,282.534,0.00023094,3.389e-05,0.0,0 STARLINK-3044,1 49438U 21104AG  24186.43469766  .00003389  00000-0  23094-3 0  9996,2 49438  53.2161  82.0615 0001337  77.5802 282.5340 15.08838800147404,6917.884,95.438,540.674,538.824,0.0
49438.0,STARLINK-3044,PAYLOAD,2024-07-04 23:09:02,15.08842086,0.0001197,53.2155,79.6834,77.3078,282.8048,0.00021426,3.124e-05,0.0,0 STARLINK-3044,1 49438U 21104AG  24186.96461755  .00003124  00000-0  21426-3 0  9998,2 49438  53.2155  79.6834 0001197  77.3078 282.8048 15.08842086146418,6917.874,95.437,540.567,538.911,0.0
49438.0,STARLINK-3044,PAYLOAD,2024-07-05 10:16:44,15.08847197,0.0001263,53.2161,77.6022,83.2402,276.8734,0.0002787,4.151e-05,0.0,0 STARLINK-3044,1 49438U 21104AG  24187.42829578  .00004151  00000-0  27870-3 0  9991,2 49438  53.2161  77.6022 0001263  83.2402 276.8734 15.08847197146483,6917.858,95.437,540.597,538.85,0.0
49438.0,STARLINK-3044,PAYLOAD,2024-07-05 22:59:49,15.088498,0.0001317,53.216,75.2211,95.5381,264.5761,0.00031182,4.679e-05,0.0,0 STARLINK-3044,1 49438U 21104AG  24187.95821372  .00004679  00000-0  31182-3 0  9999,2 49438  53.2160  75.2211 0001317  95.5381 264.5761 15.08849800146564,6917.85,95.437,540.627,538.804,0.0
49438.0,STARLINK-3044,PAYLOAD,2024-07-06 02:10:35,15.08853454,0.0001343,53.2168,74.6252,107.7595,252.3544,0.00029468,4.407e-05,0.0,0 STARLINK-3044,1 49438U 21104AG  24188.09069082  .00004407  00000-0  29468-3 0  9990,2 49438  53.2168  74.6252 0001343 107.7595 252.3544 15.08853454147657,6917.839,95.437,540.633,538.775,0.0
49438.0,STARLINK-3044,PAYLOAD,2024-07-06 10:07:31,15.08842294,0.0001429,53.2173,73.1429,80.7855,279.3299,7.8368e-05,9.6e-06,0.0,0 STARLINK-3044,1 49438U 21104AG  24188.42189582  .00000960  00000-0  78368-4 0  9999,2 49438  53.2173  73.1429 0001429  80.7855 279.3299 15.08842294147709,6917.873,95.437,540.727,538.75,0.0
49438.0,STARLINK-3044,PAYLOAD,2024-07-06 22:50:37,15.08836807,0.0001599,53.2178,70.7634,94.7194,265.3981,-3.6934e-05,-8.76e-06,0.0,0 STARLINK-3044,1 49438U 21104AG  24188.95181929 -.00000876  00000-0 -36934-4 0  9995,2 49438  53.2178  70.7634 0001599  94.7194 265.3981 15.08836807146710,6917.89,95.438,540.861,538.649,0.0
49438.0,STARLINK-3044,PAYLOAD,2024-07-07 02:01:23,15.08838868,0.0001627,53.2178,70.1678,95.899,264.2187,4.5197e-06,-2.16e-06,0.0,0 STARLINK-3044,1 49438U 21104AG  24189.08429843 -.00000216  00000-0  45197-5 0  9999,2 49438  53.2178  70.1678 0001627  95.8990 264.2187 15.08838868146737,6917.884,95.438,540.874,538.623,0.0
49438.0,STARLINK-3044,PAYLOAD,2024-07-07 21:06:00,15.08844622,0.0001699,53.2184,66.5984,102.0929,258.0254,0.00011405,1.528e-05,0.0,0 STARLINK-3044,1 49438U 21104AG  24189.87917703  .00001528  00000-0  11405-3 0  9992,2 49438  53.2184  66.5984 0001699 102.0929 258.0254 15.08844622147928,6917.866,95.437,540.907,538.556,0.0
49438.0,STARLINK-3044,PAYLOAD,2024-07-08 08:13:42,15.08843786,0.000161,53.2179,64.5166,100.5747,259.5426,6.1299e-05,6.88e-06,0.0,0 STARLINK-3044,1 49438U 21104AG  24190.34285669  .00000688  00000-0  61299-4 0  9998,2 49438  53.2179  64.5166 0001610 100.5747 259.5426 15.08843786146922,6917.869,95.437,540.848,538.62,0.0
49438.0,STARLINK-3044,PAYLOAD,2024-07-08 20:56:48,15.08839675,0.0001671,53.2179,62.1378,101.5255,258.5925,0.00017571,2.509e-05,0.0,0 STARLINK-3044,1 49438U 21104AG  24190.87278029  .00002509  00000-0  17571-3 0  9995,2 49438  53.2179  62.1378 0001671 101.5255 258.5925 15.08839675148076,6917.881,95.438,540.902,538.59,0.0
49438.0,STARLINK-3044,PAYLOAD,2024-07-08 22:32:11,15.08843084,0.0001585,53.217,61.8451,107.3283,252.7883,0.00024557,3.623e-05,0.0,0 STARLINK-3044,1 49438U 21104AG  24190.93901795  .00003623  00000-0  24557-3 0  9995,2 49438  53.2170  61.8451 0001585 107.3283 252.7883 15.08843084147015,6917.871,95.437,540.832,538.639,0.0
49438.0,STARLINK-3044,PAYLOAD,2024-07-09 08:04:29,15.08842444,0.0001546,53.2174,60.0601,106.1336,253.9827,6.7158e-05,7.81e-06,0.0,0 STARLINK-3044,1 49438U 21104AG  24191.33645753  .00000781  00000-0  67158-4 0  9996,2 49438  53.2174  60.0601 0001546 106.1336 253.9827 15.08842444147076,6917.873,95.437,540.807,538.668,0.0
49438.0,STARLINK-3044,PAYLOAD,2024-07-09 20:47:35,15.08834534,0.0001773,53.2184,57.6847,117.5641,242.5532,-9.5917e-05,-1.814e-05,0.0,0 STARLINK-3044,1 49438U 21104AG  24191.86638308 -.00001814  00000-0 -95917-4 0  9996,2 49438  53.2184  57.6847 0001773 117.5641 242.5532 15.08834534147155,6917.897,95.438,540.989,538.536,0.0
49438.0,STARLINK-3044,PAYLOAD,2024-07-10 07:55:17,15.08838795,0.0001463,53.2172,55.5979,96.7745,263.3414,6.2403e-05,7.05e-06,0.0,0 STARLINK-3044,1 49438U 21104AG  24192.33006225  .00000705  00000-0  62403-4 0  9996,2 49438  53.2172  55.5979 0001463  96.7745 263.3414 15.08838795147225,6917.884,95.438,540.761,538.737,0.0
49438.0,STARLINK-3044,PAYLOAD,2024-07-10 22:13:45,15.08842899,0.0001342,53.2176,52.9218,93.2291,266.8855,7.5096e-05,9.08e-06,0.0,0 STARLINK-3044,1 49438U 21104AG  24192.92622172  .00000908  00000-0  75096-4 0  9993,2 49438  53.2176  52.9218 0001342  93.2291 266.8855 15.08842899147317,6917.872,95.437,540.665,538.808,0.0
49438.0,STARLINK-3044,PAYLOAD,2024-07-10 23:49:08,15.08845009,0.0001356,53.2177,52.6228,86.7963,273.3184,9.3383e-05,1.199e-05,0.0,0 STARLINK-3044,1 49438U 21104AG  24192.99246097  .00001199  00000-0  93383-4 0  9990,2 49438  53.2177  52.6228 0001356  86.7963 273.3184 15.08845009148397,6917.865,95.437,540.668,538.792,0.0
49438.0,STARLINK-3044,PAYLOAD,2024-07-11 20:29:09,15.08847308,0.0001361,53.2175,48.7576,82.853,277.2617,0.0002793,4.161e-05,0.0,0 STARLINK-3044,1 49438U 21104AG  24193.85358077  .00004161  00000-0  27930-3 0  9994,2 49438  53.2175  48.7576 0001361  82.8530 277.2617 15.08847308147454,6917.858,95.437,540.665,538.782,0.0
49438.0,STARLINK-3044,PAYLOAD,2024-07-12 07:36:51,15.08846681,0.000129,53.2176,46.6752,84.3144,275.7995,0.00018371,2.638e-05,0.0,0 STARLINK-3044,1 49438U 21104AG  24194.31726037  .00002638  00000-0  18371-3 0  9997,2 49438  53.2176  46.6752 0001290  84.3144 275.7995 15.08846681148598,6917.86,95.437,540.617,538.833,0.0
49438.0,STARLINK-3044,PAYLOAD,2024-07-12 20:19:56,15.08843268,0.0001286,53.2163,44.2951,96.1851,263.9287,6.7685e-05,7.9e-06,0.0,0 STARLINK-3044,1 49438U 21104AG  24194.84718042  .00000790  00000-0  67685-4 0  9992,2 49438  53.2163  44.2951 0001286  96.1851 263.9287 15.08843268147602,6917.87,95.437,540.625,538.846,0.0
49438.0,STARLINK-3044,PAYLOAD,2024-07-13 07:27:38,15.08844204,0.0001314,53.2166,42.214,94.2923,265.8219,0.00012928,1.77e-05,0.0,0 STARLINK-3044,1 49438U 21104AG  24195.31086047  .00001770  00000-0  12928-3 0  9996,2 49438  53.2166  42.2140 0001314  94.2923 265.8219 15.08844204147678,6917.868,95.437,540.642,538.824,0.0
49438.0,STARLINK-3044,PAYLOAD,2024-07-13 20:10:43,15.08844446,0.0001498,53.2183,39.8337,111.6732,248.4419,0.0001737,2.478e-05,0.0,0 STARLINK-3044,1 49438U 21104AG  24195.84078089  .00002478  00000-0  17370-3 0  9993,2 49438  53.2183  39.8337 0001498 111.6732 248.4419 15.08844446147758,6917.867,95.437,540.768,538.696,0.0
49438.0,STARLINK-3044,PAYLOAD,2024-07-13 23:21:29,15.088491,0.0001532,53.2183,39.2389,107.7553,252.3607,0.00012864,1.76e-05,0.0,0 STARLINK-3044,1 49438U 21104AG  24195.97325915  .00001760  00000-0  12864-3 0  9996,2 49438  53.2183  39.2389 0001532 107.7553 252.3607 15.08849100148841,6917.853,95.437,540.777,538.658,0.0
49438.0,STARLINK-3044,PAYLOAD,2024-07-14 13:39:58,15.08839785,0.0001752,53.2177,36.5622,97.9514,262.1677,9.8638e-05,1.282e-05,0.0,0 STARLINK-3044,1 49438U 21104AG  24196.56942573  .00001282  00000-0  98638-4 0  9990,2 49438  53.2177  36.5622 0001752  97.9514 262.1677 15.08839785148939,6917.881,95.438,540.958,538.534,0.0
49438.0,STARLINK-3044,PAYLOAD,2024-07-14 20:01:30,15.08842444,0.0001473,53.2178,35.374,108.0121,252.1032,0.00017387,2.48e-05,0.0,0 STARLINK-3044,1 49438U 21104AG  24196.83438423  .00002480  00000-0  17387-3 0  9996,2 49438  53.2178  35.3740 0001473 108.0121 252.1032 15.08842444147902,6917.873,95.437,540.757,538.719,0.0
49438.0,STARLINK-3044,PAYLOAD,2024-07-15 18:16:54,15.08842759,0.0001432,53.2181,31.2122,105.3936,254.7214,0.00015795,2.227e-05,0.0,0 STARLINK-3044,1 49438U 21104AG  24197.76174563  .00002227  00000-0  15795-3 0  9991,2 49438  53.2181  31.2122 0001432 105.3936 254.7214 15.08842759149118,6917.872,95.437,540.728,538.746,0.0
49438.0,STARLINK-3044,PAYLOAD,2024-07-16 05:24:36,15.08843341,0.0001368,53.2182,29.1322,97.2179,262.8969,0.00014848,2.076e-05,0.0,0 STARLINK-3044,1 49438U 21104AG  24198.22542560  .00002076  00000-0  14848-3 0  9999,2 49438  53.2182  29.1322 0001368  97.2179 262.8969 15.08843341148117,6917.87,95.437,540.682,538.789,0.0
49438.0,STARLINK-3044,PAYLOAD,2024-07-16 16:32:18,15.08845876,0.000134,53.2181,27.0501,99.3037,260.8107,0.00016598,2.355e-05,0.0,0 STARLINK-3044,1 49438U 21104AG  24198.68910354  .00002355  00000-0  16598-3 0  9993,2 49438  53.2181  27.0501 0001340  99.3037 260.8107 15.08845876148182,6917.862,95.437,540.654,538.8,0.0
49438.0,STARLINK-3044,PAYLOAD,2024-07-17 05:15:23,15.08850548,0.0001254,53.2179,24.6727,82.3514,277.7621,0.00017736,2.537e-05,0.0,0 STARLINK-3044,1 49438U 21104AG  24199.21901986  .00002537  00000-0  17736-3 0  9991,2 49438  53.2179  24.6727 0001254  82.3514 277.7621 15.08850548149336,6917.848,95.437,540.581,538.846,0.0
49438.0,STARLINK-3044,PAYLOAD,2024-07-17 19:33:52,15.08832803,0.0001414,53.2185,21.997,86.4627,273.6527,-0.00011711,-2.151e-05,0.0,0 STARLINK-3044,1 49438U 21104AG  24199.81518968 -.00002151  00000-0 -11711-3 0  9992,2 49438  53.2185  21.9970 0001414  86.4627 273.6527 15.08832803149425,6917.902,95.438,540.746,538.789,0.0
